GLOBALSTAR M084 [+]     
1 38040U 11080A   24027.53552333 -.00000102  00000+0  10742-4 0  9990
2 38040  52.0001 150.9064 0000931  84.5269 355.6221 12.62270475558689
GLOBALSTAR M080 [+]     
1 38041U 11080B   24027.76153406 -.00000108  00000+0 -25759-4 0  9995
2 38041  52.0052 151.6477 0000797  77.3088  69.9001 12.62268564558835
GLOBALSTAR M082 [+]     
1 38042U 11080C   24027.69972795 -.00000073  00000+0  17298-3 0  9996
2 38042  52.0076 107.2284 0001198 138.5977  28.3419 12.62265399559531
GLOBALSTAR M092 [+]     
1 38043U 11080D   24027.65454729 -.00000108  00000+0 -24073-4 0  9995
2 38043  52.0060 197.7179 0001200  85.9154 353.4651 12.62276048557988
GLOBALSTAR M090 [+]     
1 38044U 11080E   24027.39001829 -.00000073  00000+0  17101-3 0  9999
2 38044  51.9885 102.6310 0000893 137.6807 302.0452 12.62265566559615
GLOBALSTAR M086 [+]     
1 38045U 11080F   24027.59063625 -.00000074  00000+0  16807-3 0  9997
2 38045  51.9896 102.5332 0000471 234.0236 277.0036 12.62266705559683
GLOBALSTAR M097 [+]     
1 39072U 13005A   24027.34603158 -.00000092  00000+0  67299-4 0  9993
2 39072  52.0071  17.3076 0000183 156.7785 203.3090 12.62260262506808
GLOBALSTAR M093 [+]     
1 39073U 13005B   24027.31953319 -.00000090  00000+0  75693-4 0  9993
2 39073  51.9838  11.5029 0000193 183.1961 176.8904 12.62260290506756
